     2.11           N: GPS NAV DATA                         RINEX VERSION / TYPE
teqc  2019Feb25     CORS-ADM Account    20201216 01:49:07UTCPGM / RUN BY / DATE
Linux 2.4.21-27.ELsmp|Opteron|gcc|Linux 64|=+               COMMENT
     2.10           N: GPS NAV DATA                         COMMENT
rvacn.e(1404.07)                        2020-12-16T01:30 UTCCOMMENT
This file contains the validated broadcast navigation       COMMENT
messages from the following files:                          COMMENT
abmf3490.20n, abpo3490.20n, albh3490.20n, areq3490.20n,     COMMENT
aspa3490.20n, badg3490.20n, bake3490.20n, barh3490.20n,     COMMENT
bogt3490.20n, brew3490.20n, chum3490.20n, chur3490.20n,     COMMENT
cro13490.20n, dgar3490.20n, drao3490.20n, dubo3490.20n,     COMMENT
fair3490.20n, falk3490.20n, flin3490.20n, glps3490.20n,     COMMENT
glsv3490.20n, gode3490.20n, godz3490.20n, gold3490.20n,     COMMENT
holb3490.20n, hrao3490.20n, iisc3490.20n, invk3490.20n,     COMMENT
jplm3490.20n, kokb3490.20n, kokv3490.20n, mana3490.20n,     COMMENT
maui3490.20n, mcm43490.20n, mdo13490.20n, mkea3490.20n,     COMMENT
nano3490.20n, nico3490.20n, nya13490.20n, nyal3490.20n,     COMMENT
ohi23490.20n, pie13490.20n, pimo3490.20n, pol23490.20n,     COMMENT
polv3490.20n, sant3490.20n, sch23490.20n, stjo3490.20n,     COMMENT
suth3490.20n, tcms3490.20n, tehn3490.20n, tro13490.20n,     COMMENT
unbj3490.20n, vndp3490.20n, whit3490.20n, will3490.20n,     COMMENT
yell3490.20n, zamb3490.20n                                  COMMENT
    9.3132D-09 -1.4901D-08 -5.9605D-08  1.1921D-07          ION ALPHA
    9.6256D+04 -1.4746D+05 -1.3107D+05  9.1750D+05          ION BETA
   -9.313225746155D-10 8.881784197001D-16   233472     2136 DELTA-UTC: A0,A1,T,W
                                                            END OF HEADER
24 20 12 14  1 59 28.0 5.169771611691D-06-5.684341886081D-13 0.000000000000D+00
    1.000000000000D+00 1.540625000000D+01 5.080211611205D-09-2.923678281222D-01
    8.568167686462D-07 1.069251447916D-02 1.080706715584D-05 5.153624446869D+03
    9.356800000000D+04 7.636845111847D-08 2.511224299029D+00 8.754432201385D-08
    9.357007850649D-01 1.601875000000D+02 7.080392396935D-01-8.255701025942D-09
   -6.671706474783D-10 1.000000000000D+00 2.136000000000D+03 0.000000000000D+00
    2.000000000000D+00 0.000000000000D+00 2.793967723846D-09 1.000000000000D+00
    8.641800000000D+04 4.000000000000D+00
 5 20 12 14  1 59 44.0-2.829683944583D-05-1.023181539495D-12 0.000000000000D+00
    1.000000000000D+00-9.125000000000D+00 4.550546691392D-09 2.230000465888D+00
   -5.308538675308D-07 6.026152521372D-03 1.114420592785D-05 5.153778736115D+03
    9.358400000000D+04-2.421438694000D-08 4.482089961952D-01-5.960464477539D-08
    9.547362239102D-01 1.625625000000D+02 8.931505180470D-01-7.819254274755D-09
    7.300304086968D-10 1.000000000000D+00 2.136000000000D+03 0.000000000000D+00
    2.000000000000D+00 0.000000000000D+00-1.117587089539D-08 1.000000000000D+00
    8.860500000000D+04 4.000000000000D+00
 8 20 12 14  1 59 44.0-2.811197191477D-06-1.364242052659D-12 0.000000000000D+00
    2.000000000000D+00-1.118750000000D+01 4.735554397706D-09 1.658032762188D+00
   -3.762543201447D-07 5.889228777960D-03-8.586794137955D-07 5.153765985489D+03
    9.358400000000D+04 1.303851604462D-07-1.628267597504D+00 8.568167686462D-08
    9.683057312147D-01 3.977187500000D+02-5.980446119872D-02-8.591429296087D-09
   -1.507205638307D-10 1.000000000000D+00 2.136000000000D+03 0.000000000000D+00
    2.000000000000D+00 0.000000000000D+00 5.122274160385D-09 2.000000000000D+00
    8.947800000000D+04 4.000000000000D+00
32 20 12 14  1 59 44.0 7.890164852142D-06 2.614797267597D-12 0.000000000000D+00
    3.300000000000D+01 2.500000000000D-01 5.063425197698D-09 2.315583111891D+00
    1.061707735062D-07 4.306739545427D-03 4.753470420837D-06 5.153600147247D+03
    9.358400000000D+04-1.024454832077D-07 1.522633837891D+00-1.117587089539D-07
    9.564854101880D-01 2.835000000000D+02-2.468466963272D+00-8.194984211129D-09
    6.285976121851D-11 1.000000000000D+00 2.136000000000D+03 0.000000000000D+00
    2.000000000000D+00 0.000000000000D+00 4.656612873077D-10 3.300000000000D+01
    8.926800000000D+04 4.000000000000D+00
 1 20 12 14  2  0  0.0 7.960814982653D-04-5.115907697473D-12 0.000000000000D+00
    2.100000000000D+01-1.443437500000D+02 3.820873440430D-09-6.139342634778D-01
   -7.601454854012D-06 1.017776713707D-02 8.765608072281D-06 5.153701086044D+03
    9.360000000000D+04 2.421438694000D-08-5.555833796264D-01 2.030283212662D-07
    9.828259026667D-01 2.206875000000D+02 8.241945679949D-01-7.865684780200D-09
   -2.678683006471D-10 1.000000000000D+00 2.136000000000D+03 0.000000000000D+00
    2.000000000000D+00 0.000000000000D+00 5.122274160385D-09 2.100000000000D+01
    8.641800000000D+04 4.000000000000D+00
 2 20 12 14  2  0  0.0-5.541108548641D-04-4.433786671143D-12 0.000000000000D+00
    1.090000000000D+02-1.531875000000D+02 4.376968032573D-09-3.799866556723D-01
   -8.050352334976D-06 2.021054271609D-02 8.931383490562D-06 5.153580293655D+03
    9.360000000000D+04-2.421438694000D-07-6.359743107685D-01 1.471489667892D-07
    9.616019749478D-01 2.118750000000D+02-1.576542331076D+00-8.416064848597D-09
   -1.978653847446D-10 1.000000000000D+00 2.136000000000D+03 0.000000000000D+00
    2.000000000000D+00 0.000000000000D+00-1.769512891769D-08 1.090000000000D+02
    8.641800000000D+04 4.000000000000D+00
 3 20 12 14  2  0  0.0-2.920301631093D-05-1.000444171950D-11 0.000000000000D+00
    3.800000000000D+01 1.812500000000D+00 4.214461263514D-09-1.802045509057D+00
    1.061707735062D-07 3.243503510021D-03 1.090392470360D-05 5.153691835403D+03
    9.360000000000D+04 2.980232238770D-08 4.828445852836D-01-9.313225746155D-08
    9.677814550222D-01 1.748437500000D+02 8.927096311108D-01-7.673891076937D-09
    6.450268679581D-10 1.000000000000D+00 2.136000000000D+03 0.000000000000D+00
    2.000000000000D+00 0.000000000000D+00 1.862645149231D-09 3.800000000000D+01
    8.656200000000D+04 4.000000000000D+00
 4 20 12 14  2  0  0.0-1.640976406634D-04-3.410605131648D-12 0.000000000000D+00
    8.700000000000D+01-8.281250000000D+00 5.019494796392D-09 1.121426174484D+00
   -3.799796104431D-07 9.723667753860D-04 4.867091774940D-06 5.153593667984D+03
    9.360000000000D+04 3.725290298462D-09 1.562862859146D+00-5.587935447693D-09
    9.596478835863D-01 2.847812500000D+02-3.080110333610D+00-8.232842930954D-09
   -1.100045821324D-10 1.000000000000D+00 2.136000000000D+03 0.000000000000D+00
    2.000000000000D+00 0.000000000000D+00-4.190951585770D-09 8.550000000000D+02
    8.641800000000D+04 4.000000000000D+00
 5 20 12 14  2  0  0.0-2.829544246197D-05-9.094947017729D-13 0.000000000000D+00
    9.800000000000D+01-9.125000000000D+00 4.550903849127D-09 2.232334493166D+00
   -5.308538675308D-07 6.026149145328D-03 1.114420592785D-05 5.153778736115D+03
    9.360000000000D+04-2.421438694000D-08 4.482088674584D-01-5.960464477539D-08
    9.547362458540D-01 1.625625000000D+02 8.931501128186D-01-7.819254274755D-09
    7.303875664310D-10 1.000000000000D+00 2.136000000000D+03 0.000000000000D+00
    2.000000000000D+00 0.000000000000D+00-1.117587089539D-08 9.800000000000D+01
    8.641900000000D+04 4.000000000000D+00
 6 20 12 14  2  0  0.0-3.885477781296D-06-6.821210263297D-13 0.000000000000D+00
    6.800000000000D+01-1.595937500000D+02 3.721940748057D-09-1.949789826401D-01
   -8.268281817436D-06 2.103567821905D-03 9.767711162567D-06 5.153678201675D+03
    9.360000000000D+04-3.911554813385D-08-5.638355454422D-01-1.490116119385D-08
    9.823265355803D-01 2.035000000000D+02-1.153456735109D+00-7.726036106130D-09
   -2.439387324559D-10 1.000000000000D+00 2.136000000000D+03 0.000000000000D+00
    2.000000000000D+00 0.000000000000D+00 4.190952000000D-09 6.800000000000D+01
    9.225000000000D+04 4.000000000000D+00
 7 20 12 14  2  0  0.0-4.333844408393D-04-7.389644451905D-12 0.000000000000D+00
    7.400000000000D+01 3.000000000000D+01 4.510545025162D-09-1.272053593224D+00
    1.601874828339D-06 1.427551638335D-02 1.089647412300D-05 5.153623950958D+03
    9.360000000000D+04 3.762543201447D-07 2.586703131620D+00 1.043081283569D-07
    9.524314228089D-01 1.611875000000D+02-2.357806836576D+00-7.791395971488D-09
   -5.160929259133D-10 1.000000000000D+00 2.136000000000D+03 0.000000000000D+00
    2.000000000000D+00 0.000000000000D+00-1.117587089539D-08 7.400000000000D+01
    8.641800000000D+04 4.000000000000D+00
 8 20 12 14  2  0  0.0-2.815853804350D-06-1.364242052659D-12 0.000000000000D+00
    1.820000000000D+02-1.118750000000D+01 4.735554397706D-09 1.660368676631D+00
   -3.762543201447D-07 5.889216787182D-03-8.586794137955D-07 5.153765996933D+03
    9.360000000000D+04 1.303851604462D-07-1.628267752573D+00 8.568167686462D-08
    9.683057326776D-01 3.976875000000D+02-5.980684721810D-02-8.591429296087D-09
   -1.507205638307D-10 1.000000000000D+00 2.136000000000D+03 0.000000000000D+00
    2.800000000000D+00 0.000000000000D+00 5.122274160385D-09 1.820000000000D+02
    8.641800000000D+04 4.000000000000D+00
 9 20 12 14  2  0  0.0-3.011035732925D-04-4.433786671143D-12 0.000000000000D+00
    9.100000000000D+01-5.687500000000D+00 5.144142845626D-09 2.009086707691D+00
   -2.868473529816D-07 2.037658938207D-03 4.615634679794D-06 5.153589353561D+03
    9.360000000000D+04 1.303851604462D-08 1.513326252753D+00-9.313225746155D-09
    9.524449679674D-01 2.849375000000D+02 1.774906194550D+00-8.272487439450D-09
   -6.000249934494D-11 1.000000000000D+00 2.136000000000D+03 0.000000000000D+00
    2.000000000000D+00 0.000000000000D+00 1.396983861923D-09 9.100000000000D+01
    8.641800000000D+04 4.000000000000D+00
